[{"OBJECT_NAME":"STARLINK-37217","OBJECT_ID":"2026-059Q","EPOCH":"2026-04-03T18:43:58.790784","MEAN_MOTION":15.8101121,"ECCENTRICITY":5.3e-5,"INCLINATION":53.1596,"RA_OF_ASC_NODE":237.0216,"ARG_OF_PERICENTER":25.0417,"MEAN_ANOMALY":335.0631,"EPHEMERIS_TYPE":0,"CLASSIFICATION_TYPE":"U","NORAD_CAT_ID":68335,"ELEMENT_SET_NO":999,"REV_AT_EPOCH":194,"BSTAR":0.0021724,"MEAN_MOTION_DOT":0.00454334,"MEAN_MOTION_DDOT":0},{"OBJECT_NAME":"STARLINK-37143","OBJECT_ID":"2026-059R","EPOCH":"2026-04-03T18:42:55.676448","MEAN_MOTION":15.80967214,"ECCENTRICITY":0.0001081,"INCLINATION":53.1598,"RA_OF_ASC_NODE":237.0168,"ARG_OF_PERICENTER":139.3033,"MEAN_ANOMALY":220.8071,"EPHEMERIS_TYPE":0,"CLASSIFICATION_TYPE":"U","NORAD_CAT_ID":68336,"ELEMENT_SET_NO":999,"REV_AT_EPOCH":194,"BSTAR":0.0024836,"MEAN_MOTION_DOT":0.00522624,"MEAN_MOTION_DDOT":0},{"OBJECT_NAME":"STARLINK-36237","OBJECT_ID":"2026-059S","EPOCH":"2026-04-03T18:41:49.070688","MEAN_MOTION":15.81028462,"ECCENTRICITY":0.0001276,"INCLINATION":53.1597,"RA_OF_ASC_NODE":237.0116,"ARG_OF_PERICENTER":53.5873,"MEAN_ANOMALY":306.5267,"EPHEMERIS_TYPE":0,"CLASSIFICATION_TYPE":"U","NORAD_CAT_ID":68337,"ELEMENT_SET_NO":999,"REV_AT_EPOCH":194,"BSTAR":0.0020532,"MEAN_MOTION_DOT":0.00428361,"MEAN_MOTION_DDOT":0},{"OBJECT_NAME":"STARLINK-36254","OBJECT_ID":"2026-059T","EPOCH":"2026-04-03T18:39:41.283360","MEAN_MOTION":15.80925039,"ECCENTRICITY":0.0001308,"INCLINATION":53.16,"RA_OF_ASC_NODE":237.002,"ARG_OF_PERICENTER":57.9,"MEAN_ANOMALY":302.2149,"EPHEMERIS_TYPE":0,"CLASSIFICATION_TYPE":"U","NORAD_CAT_ID":68338,"ELEMENT_SET_NO":999,"REV_AT_EPOCH":194,"BSTAR":0.0017965,"MEAN_MOTION_DOT":0.00370398,"MEAN_MOTION_DDOT":0},{"OBJECT_NAME":"STARLINK-37200","OBJECT_ID":"2026-059U","EPOCH":"2026-04-03T18:40:46.159392","MEAN_MOTION":15.80951831,"ECCENTRICITY":9.75e-5,"INCLINATION":53.16,"RA_OF_ASC_NODE":237.0066,"ARG_OF_PERICENTER":109.3883,"MEAN_ANOMALY":250.7245,"EPHEMERIS_TYPE":0,"CLASSIFICATION_TYPE":"U","NORAD_CAT_ID":68339,"ELEMENT_SET_NO":999,"REV_AT_EPOCH":194,"BSTAR":0.002319,"MEAN_MOTION_DOT":0.00485472,"MEAN_MOTION_DDOT":0},{"OBJECT_NAME":"STARLINK-37185","OBJECT_ID":"2026-059V","EPOCH":"2026-04-03T18:38:34.645632","MEAN_MOTION":15.80951614,"ECCENTRICITY":6.44e-5,"INCLINATION":53.1601,"RA_OF_ASC_NODE":236.9968,"ARG_OF_PERICENTER":59.8772,"MEAN_ANOMALY":300.2314,"EPHEMERIS_TYPE":0,"CLASSIFICATION_TYPE":"U","NORAD_CAT_ID":68340,"ELEMENT_SET_NO":999,"REV_AT_EPOCH":194,"BSTAR":0.001087,"MEAN_MOTION_DOT":0.00220188,"MEAN_MOTION_DDOT":0},{"OBJECT_NAME":"STARLINK-37181","OBJECT_ID":"2026-059W","EPOCH":"2026-04-03T20:08:33.405792","MEAN_MOTION":15.80958516,"ECCENTRICITY":5.48e-5,"INCLINATION":53.16,"RA_OF_ASC_NODE":236.6744,"ARG_OF_PERICENTER":131.9209,"MEAN_ANOMALY":228.1861,"EPHEMERIS_TYPE":0,"CLASSIFICATION_TYPE":"U","NORAD_CAT_ID":68341,"ELEMENT_SET_NO":999,"REV_AT_EPOCH":195,"BSTAR":0.0017905,"MEAN_MOTION_DOT":0.00369728,"MEAN_MOTION_DDOT":0},{"OBJECT_NAME":"STARLINK-37192","OBJECT_ID":"2026-059X","EPOCH":"2026-04-03T18:35:21.926976","MEAN_MOTION":15.80921412,"ECCENTRICITY":8.22e-5,"INCLINATION":53.16,"RA_OF_ASC_NODE":236.9816,"ARG_OF_PERICENTER":109.5759,"MEAN_ANOMALY":250.5352,"EPHEMERIS_TYPE":0,"CLASSIFICATION_TYPE":"U","NORAD_CAT_ID":68342,"ELEMENT_SET_NO":999,"REV_AT_EPOCH":194,"BSTAR":0.001623,"MEAN_MOTION_DOT":0.00333053,"MEAN_MOTION_DDOT":0},{"OBJECT_NAME":"STARLINK-37158","OBJECT_ID":"2026-059Y","EPOCH":"2026-04-03T18:34:15.341088","MEAN_MOTION":15.80960957,"ECCENTRICITY":7.72e-5,"INCLINATION":53.1598,"RA_OF_ASC_NODE":236.9764,"ARG_OF_PERICENTER":48.2446,"MEAN_ANOMALY":311.8643,"EPHEMERIS_TYPE":0,"CLASSIFICATION_TYPE":"U","NORAD_CAT_ID":68343,"ELEMENT_SET_NO":999,"REV_AT_EPOCH":194,"BSTAR":0.0012081,"MEAN_MOTION_DOT":0.00245651,"MEAN_MOTION_DDOT":0},{"OBJECT_NAME":"STARLINK-36380","OBJECT_ID":"2026-059Z","EPOCH":"2026-04-03T18:36:26.693280","MEAN_MOTION":15.80977892,"ECCENTRICITY":7.7e-5,"INCLINATION":53.1601,"RA_OF_ASC_NODE":236.9864,"ARG_OF_PERICENTER":125.3243,"MEAN_ANOMALY":234.7852,"EPHEMERIS_TYPE":0,"CLASSIFICATION_TYPE":"U","NORAD_CAT_ID":68344,"ELEMENT_SET_NO":999,"REV_AT_EPOCH":194,"BSTAR":0.0026558,"MEAN_MOTION_DOT":0.00561796,"MEAN_MOTION_DDOT":0},{"OBJECT_NAME":"STARLINK-37214","OBJECT_ID":"2026-059AA","EPOCH":"2026-04-03T18:32:07.305792","MEAN_MOTION":15.80938799,"ECCENTRICITY":5.33e-5,"INCLINATION":53.1602,"RA_OF_ASC_NODE":236.9655,"ARG_OF_PERICENTER":58.5448,"MEAN_ANOMALY":301.5626,"EPHEMERIS_TYPE":0,"CLASSIFICATION_TYPE":"U","NORAD_CAT_ID":68345,"ELEMENT_SET_NO":999,"REV_AT_EPOCH":194,"BSTAR":0.0019205,"MEAN_MOTION_DOT":0.00397546,"MEAN_MOTION_DDOT":0},{"OBJECT_NAME":"STARLINK-37169","OBJECT_ID":"2026-059AB","EPOCH":"2026-04-03T18:31:02.504928","MEAN_MOTION":15.80962223,"ECCENTRICITY":7.55e-5,"INCLINATION":53.1597,"RA_OF_ASC_NODE":236.9601,"ARG_OF_PERICENTER":80.7122,"MEAN_ANOMALY":279.3986,"EPHEMERIS_TYPE":0,"CLASSIFICATION_TYPE":"U","NORAD_CAT_ID":68346,"ELEMENT_SET_NO":999,"REV_AT_EPOCH":194,"BSTAR":0.0022265,"MEAN_MOTION_DOT":0.00465184,"MEAN_MOTION_DDOT":0},{"OBJECT_NAME":"STARLINK-37136","OBJECT_ID":"2026-059AC","EPOCH":"2026-04-03T18:29:57.736032","MEAN_MOTION":15.80957863,"ECCENTRICITY":6.87e-5,"INCLINATION":53.1591,"RA_OF_ASC_NODE":236.9557,"ARG_OF_PERICENTER":52.284,"MEAN_ANOMALY":307.8245,"EPHEMERIS_TYPE":0,"CLASSIFICATION_TYPE":"U","NORAD_CAT_ID":68347,"ELEMENT_SET_NO":999,"REV_AT_EPOCH":194,"BSTAR":0.0024059,"MEAN_MOTION_DOT":0.00505004,"MEAN_MOTION_DDOT":0},{"OBJECT_NAME":"STARLINK-37182","OBJECT_ID":"2026-059AD","EPOCH":"2026-04-03T18:33:10.481472","MEAN_MOTION":15.80964945,"ECCENTRICITY":3.73e-5,"INCLINATION":53.1596,"RA_OF_ASC_NODE":236.9706,"ARG_OF_PERICENTER":68.1791,"MEAN_ANOMALY":291.9272,"EPHEMERIS_TYPE":0,"CLASSIFICATION_TYPE":"U","NORAD_CAT_ID":68348,"ELEMENT_SET_NO":999,"REV_AT_EPOCH":194,"BSTAR":0.0012722,"MEAN_MOTION_DOT":0.00259174,"MEAN_MOTION_DDOT":0},{"OBJECT_NAME":"STARLINK-37183","OBJECT_ID":"2026-059AE","EPOCH":"2026-04-03T18:28:52.753728","MEAN_MOTION":15.80967952,"ECCENTRICITY":4.9e-5,"INCLINATION":53.1589,"RA_OF_ASC_NODE":236.9503,"ARG_OF_PERICENTER":109.2002,"MEAN_ANOMALY":250.9074,"EPHEMERIS_TYPE":0,"CLASSIFICATION_TYPE":"U","NORAD_CAT_ID":68349,"ELEMENT_SET_NO":999,"REV_AT_EPOCH":194,"BSTAR":0.002235,"MEAN_MOTION_DOT":0.00467224,"MEAN_MOTION_DDOT":0},{"OBJECT_NAME":"CENTISPACE-1 OBJECT A","OBJECT_ID":"2026-060A","EPOCH":"2026-03-31T22:07:19.160256","MEAN_MOTION":14.74887229,"ECCENTRICITY":0.00130111,"INCLINATION":54.9828,"RA_OF_ASC_NODE":350.9279,"ARG_OF_PERICENTER":316.4493,"MEAN_ANOMALY":43.5478,"EPHEMERIS_TYPE":0,"CLASSIFICATION_TYPE":"U","NORAD_CAT_ID":68350,"ELEMENT_SET_NO":999,"REV_AT_EPOCH":137,"BSTAR":0.00033707763,"MEAN_MOTION_DOT":2.073e-5,"MEAN_MOTION_DDOT":0},{"OBJECT_NAME":"CENTISPACE-1 OBJECT B","OBJECT_ID":"2026-060B","EPOCH":"2026-04-03T21:40:57.431136","MEAN_MOTION":14.74940891,"ECCENTRICITY":0.0013457,"INCLINATION":54.9821,"RA_OF_ASC_NODE":338.7612,"ARG_OF_PERICENTER":324.5829,"MEAN_ANOMALY":35.4276,"EPHEMERIS_TYPE":0,"CLASSIFICATION_TYPE":"U","NORAD_CAT_ID":68351,"ELEMENT_SET_NO":999,"REV_AT_EPOCH":181,"BSTAR":0.00040462,"MEAN_MOTION_DOT":2.534e-5,"MEAN_MOTION_DDOT":0}]
